{
  "type": "FeatureCollection",
  "features": [
    {
      "type": "Feature",
      "properties": {
        "norad_id": 66583,
        "name": "STARLINK-35941",
        "group": "last-30-days",
        "lat": 37.90299347215437,
        "lon": 137.526626707849,
        "alt_km": 409.5638662329493,
        "timestamp": "2025-12-19T14:48:34.963633+00:00",
        "meta_object_name": "STARLINK-35941",
        "meta_object_id": "2025-268AC",
        "meta_epoch": "2025-12-19T06:48:15.499008",
        "meta_mean_motion": 15.50622928,
        "meta_eccentricity": 0.00015092,
        "meta_inclination": 42.999,
        "meta_ra_of_asc_node": 82.807,
        "meta_arg_of_pericenter": 278.0485,
        "meta_mean_anomaly": 82.0204,
        "meta_ephemeris_type": 0,
        "meta_classification_type": "U",
        "meta_norad_cat_id": 66583,
        "meta_element_set_no": 999,
        "meta_rev_at_epoch": 564,
        "meta_bstar": 0.0011280708,
        "meta_mean_motion_dot": 0.00066506,
        "meta_mean_motion_ddot": 0,
        "tle_line1": "1 66583U 25268AC  25353.28351272  .00066506  00000+0  11281-2 0  9996",
        "tle_line2": "2 66583  42.9990  82.8070 0001509 278.0485  82.0204 15.50622928  5648"
      },
      "geometry": {
        "type": "Point",
        "coordinates": [
          137.526626707849,
          37.90299347215437
        ]
      }
    },
    {
      "type": "Feature",
      "properties": {
        "norad_id": 66584,
        "name": "STARLINK-35939",
        "group": "last-30-days",
        "lat": 38.75752655847915,
        "lon": 140.33214856835946,
        "alt_km": 409.2482913269432,
        "timestamp": "2025-12-19T14:48:34.963646+00:00",
        "meta_object_name": "STARLINK-35939",
        "meta_object_id": "2025-268AD",
        "meta_epoch": "2025-12-18T13:47:25.569600",
        "meta_mean_motion": 15.50609081,
        "meta_eccentricity": 0.00021101,
        "meta_inclination": 42.9997,
        "meta_ra_of_asc_node": 86.9444,
        "meta_arg_of_pericenter": 279.7649,
        "meta_mean_anomaly": 80.2973,
        "meta_ephemeris_type": 0,
        "meta_classification_type": "U",
        "meta_norad_cat_id": 66584,
        "meta_element_set_no": 999,
        "meta_rev_at_epoch": 553,
        "meta_bstar": 0.0016835386,
        "meta_mean_motion_dot": 0.00099801,
        "meta_mean_motion_ddot": 0,
        "tle_line1": "1 66584U 25268AD  25352.57460150  .00099801  00000+0  16835-2 0  9998",
        "tle_line2": "2 66584  42.9997  86.9444 0002110 279.7649  80.2973 15.50609081  5531"
      },
      "geometry": {
        "type": "Point",
        "coordinates": [
          140.33214856835946,
          38.75752655847915
        ]
      }
    },
    {
      "type": "Feature",
      "properties": {
        "norad_id": 66585,
        "name": "STARLINK-35963",
        "group": "last-30-days",
        "lat": 39.253620599741424,
        "lon": 142.1129912108416,
        "alt_km": 409.6271229625836,
        "timestamp": "2025-12-19T14:48:34.963656+00:00",
        "meta_object_name": "STARLINK-35963",
        "meta_object_id": "2025-268AE",
        "meta_epoch": "2025-12-19T06:47:16.129248",
        "meta_mean_motion": 15.50619243,
        "meta_eccentricity": 0.00016879,
        "meta_inclination": 43.0009,
        "meta_ra_of_asc_node": 82.8011,
        "meta_arg_of_pericenter": 258.021,
        "meta_mean_anomaly": 102.0461,
        "meta_ephemeris_type": 0,
        "meta_classification_type": "U",
        "meta_norad_cat_id": 66585,
        "meta_element_set_no": 999,
        "meta_rev_at_epoch": 564,
        "meta_bstar": 0.0013398312,
        "meta_mean_motion_dot": 0.00079173,
        "meta_mean_motion_ddot": 0,
        "tle_line1": "1 66585U 25268AE  25353.28282557  .00079173  00000+0  13398-2 0  9992",
        "tle_line2": "2 66585  43.0009  82.8011 0001687 258.0210 102.0461 15.50619243  5643"
      },
      "geometry": {
        "type": "Point",
        "coordinates": [
          142.1129912108416,
          39.253620599741424
        ]
      }
    },
    {
      "type": "Feature",
      "properties": {
        "norad_id": 66586,
        "name": "TJS-21",
        "group": "last-30-days",
        "lat": 33.06186226865941,
        "lon": -37.55206836533636,
        "alt_km": 17944.489446157717,
        "timestamp": "2025-12-19T14:48:34.963669+00:00",
        "meta_object_name": "TJS-21",
        "meta_object_id": "2025-269A",
        "meta_epoch": "2025-12-18T16:58:10.473888",
        "meta_mean_motion": 2.00580748,
        "meta_eccentricity": 0.6806869,
        "meta_inclination": 63.2733,
        "meta_ra_of_asc_node": 161.7218,
        "meta_arg_of_pericenter": 269.7428,
        "meta_mean_anomaly": 18.6663,
        "meta_ephemeris_type": 0,
        "meta_classification_type": "U",
        "meta_norad_cat_id": 66586,
        "meta_element_set_no": 999,
        "meta_rev_at_epoch": 55,
        "meta_bstar": -0.059507049,
        "meta_mean_motion_dot": 1.084e-05,
        "meta_mean_motion_ddot": 0,
        "tle_line1": "1 66586U 25269A   25352.70706567  .00001084  00000+0 -59507-1 0  9990",
        "tle_line2": "2 66586  63.2733 161.7218 6806869 269.7428  18.6663  2.00580748   558"
      },
      "geometry": {
        "type": "Point",
        "coordinates": [
          -37.55206836533636,
          33.06186226865941
        ]
      }
    },
    {
      "type": "Feature",
      "properties": {
        "norad_id": 66587,
        "name": "CZ-3B R/B",
        "group": "last-30-days",
        "lat": -34.64000650835307,
        "lon": 134.25650940554902,
        "alt_km": 4128.184025582267,
        "timestamp": "2025-12-19T14:48:34.963682+00:00",
        "meta_object_name": "CZ-3B R/B",
        "meta_object_id": "2025-269B",
        "meta_epoch": "2025-12-18T04:21:45.908640",
        "meta_mean_motion": 2.0405465,
        "meta_eccentricity": 0.75166459,
        "meta_inclination": 51.3412,
        "meta_ra_of_asc_node": 168.3764,
        "meta_arg_of_pericenter": 229.6756,
        "meta_mean_anomaly": 36.1575,
        "meta_ephemeris_type": 0,
        "meta_classification_type": "U",
        "meta_norad_cat_id": 66587,
        "meta_element_set_no": 999,
        "meta_rev_at_epoch": 56,
        "meta_bstar": 0.00058948144,
        "meta_mean_motion_dot": 0.0008861,
        "meta_mean_motion_ddot": -1.447425e-06,
        "tle_line1": "1 66587U 25269B   25352.18178135  .00088610 -14474-5  58948-3 0  9993",
        "tle_line2": "2 66587  51.3412 168.3764 7516645 229.6756  36.1575  2.04054650   560"
      },
      "geometry": {
        "type": "Point",
        "coordinates": [
          134.25650940554902,
          -34.64000650835307
        ]
      }
    },
    {
      "type": "Feature",
      "properties": {
        "norad_id": 66588,
        "name": "STARLINK-36076",
        "group": "last-30-days",
        "lat": 27.57585525271346,
        "lon": -172.76301006503255,
        "alt_km": 440.24377342380194,
        "timestamp": "2025-12-19T14:48:34.963694+00:00",
        "meta_object_name": "STARLINK-36076",
        "meta_object_id": "2025-270A",
        "meta_epoch": "2025-12-19T03:44:02.582016",
        "meta_mean_motion": 15.40724082,
        "meta_eccentricity": 0.0001575,
        "meta_inclination": 42.9984,
        "meta_ra_of_asc_node": 155.8086,
        "meta_arg_of_pericenter": 265.971,
        "meta_mean_anomaly": 94.0966,
        "meta_ephemeris_type": 0,
        "meta_classification_type": "U",
        "meta_norad_cat_id": 66588,
        "meta_element_set_no": 999,
        "meta_rev_at_epoch": 533,
        "meta_bstar": 0.00080329053,
        "meta_mean_motion_dot": 0.00033426,
        "meta_mean_motion_ddot": 0,
        "tle_line1": "1 66588U 25270A   25353.15558544  .00033426  00000+0  80329-3 0  9996",
        "tle_line2": "2 66588  42.9984 155.8086 0001575 265.9710  94.0966 15.40724082  5330"
      },
      "geometry": {
        "type": "Point",
        "coordinates": [
          -172.76301006503255,
          27.57585525271346
        ]
      }
    },
    {
      "type": "Feature",
      "properties": {
        "norad_id": 66589,
        "name": "STARLINK-35447",
        "group": "last-30-days",
        "lat": 24.634742771927865,
        "lon": -56.57249983408972,
        "alt_km": 440.95951032032826,
        "timestamp": "2025-12-19T14:48:34.963704+00:00",
        "meta_object_name": "STARLINK-35447",
        "meta_object_id": "2025-270B",
        "meta_epoch": "2025-12-19T08:00:01.999872",
        "meta_mean_motion": 15.40670884,
        "meta_eccentricity": 0.0001449,
        "meta_inclination": 42.9993,
        "meta_ra_of_asc_node": 154.5426,
        "meta_arg_of_pericenter": 287.091,
        "meta_mean_anomaly": 79.6741,
        "meta_ephemeris_type": 0,
        "meta_classification_type": "U",
        "meta_norad_cat_id": 66589,
        "meta_element_set_no": 999,
        "meta_rev_at_epoch": 556,
        "meta_bstar": 0.0013060454,
        "meta_mean_motion_dot": 0.00054592,
        "meta_mean_motion_ddot": 0,
        "tle_line1": "1 66589U 25270B   25353.33335648  .00054592  00000+0  13060-2 0  9999",
        "tle_line2": "2 66589  42.9993 154.5426 0001449 287.0910  79.6741 15.40670884  5567"
      },
      "geometry": {
        "type": "Point",
        "coordinates": [
          -56.57249983408972,
          24.634742771927865
        ]
      }
    }
  ]
}